{
  "type": "FeatureCollection",
  "features": [
    {
      "type": "Feature",
      "properties": {
        "norad_id": 35073,
        "name": "COSMOS 2251 DEB",
        "group": "cosmos-2251-debris",
        "lat": 38.81187393910891,
        "lon": 126.53746072585494,
        "alt_km": 559.1553009651143,
        "timestamp": "2025-12-17T23:38:07.249405+00:00",
        "meta_object_name": "COSMOS 2251 DEB",
        "meta_object_id": "1993-036AJC",
        "meta_epoch": "2025-12-15T05:25:47.046144",
        "meta_mean_motion": 15.00831653,
        "meta_eccentricity": 0.00109074,
        "meta_inclination": 73.9997,
        "meta_ra_of_asc_node": 325.5063,
        "meta_arg_of_pericenter": 67.0121,
        "meta_mean_anomaly": 293.2216,
        "meta_ephemeris_type": 0,
        "meta_classification_type": "U",
        "meta_norad_cat_id": 35073,
        "meta_element_set_no": 999,
        "meta_rev_at_epoch": 67516,
        "meta_bstar": 0.001951072,
        "meta_mean_motion_dot": 0.00024882,
        "meta_mean_motion_ddot": 0,
        "tle_line1": "1 35073U 93036AJC 25349.22623896  .00024882  00000+0  19511-2 0  9992",
        "tle_line2": "2 35073  73.9997 325.5063 0010907  67.0121 293.2216 15.00831653675164"
      },
      "geometry": {
        "type": "Point",
        "coordinates": [
          126.53746072585494,
          38.81187393910891
        ]
      }
    },
    {
      "type": "Feature",
      "properties": {
        "norad_id": 35284,
        "name": "COSMOS 2251 DEB",
        "group": "cosmos-2251-debris",
        "lat": 49.889289190746254,
        "lon": 54.920271111222824,
        "alt_km": 770.2613858075665,
        "timestamp": "2025-12-17T23:38:07.249415+00:00",
        "meta_object_name": "COSMOS 2251 DEB",
        "meta_object_id": "1993-036AJN",
        "meta_epoch": "2025-12-16T00:22:37.828704",
        "meta_mean_motion": 14.38321694,
        "meta_eccentricity": 0.00169136,
        "meta_inclination": 74.0489,
        "meta_ra_of_asc_node": 258.3918,
        "meta_arg_of_pericenter": 334.2537,
        "meta_mean_anomaly": 41.1453,
        "meta_ephemeris_type": 0,
        "meta_classification_type": "U",
        "meta_norad_cat_id": 35284,
        "meta_element_set_no": 999,
        "meta_rev_at_epoch": 65573,
        "meta_bstar": 0.00015700211,
        "meta_mean_motion_dot": 4.52e-06,
        "meta_mean_motion_ddot": 0,
        "tle_line1": "1 35284U 93036AJN 25350.01571561  .00000452  00000+0  15700-3 0  9990",
        "tle_line2": "2 35284  74.0489 258.3918 0016913 334.2537  41.1453 14.38321694655734"
      },
      "geometry": {
        "type": "Point",
        "coordinates": [
          54.920271111222824,
          49.889289190746254
        ]
      }
    },
    {
      "type": "Feature",
      "properties": {
        "norad_id": 35287,
        "name": "COSMOS 2251 DEB",
        "group": "cosmos-2251-debris",
        "lat": -73.53877289784403,
        "lon": 162.22477383241502,
        "alt_km": 778.7471555448019,
        "timestamp": "2025-12-17T23:38:07.249425+00:00",
        "meta_object_name": "COSMOS 2251 DEB",
        "meta_object_id": "1993-036AJR",
        "meta_epoch": "2025-12-17T13:11:38.063040",
        "meta_mean_motion": 14.36380646,
        "meta_eccentricity": 0.00177903,
        "meta_inclination": 74.0304,
        "meta_ra_of_asc_node": 267.2972,
        "meta_arg_of_pericenter": 2.8844,
        "meta_mean_anomaly": 174.5253,
        "meta_ephemeris_type": 0,
        "meta_classification_type": "U",
        "meta_norad_cat_id": 35287,
        "meta_element_set_no": 999,
        "meta_rev_at_epoch": 86961,
        "meta_bstar": 0.00011734136,
        "meta_mean_motion_dot": 3.18e-06,
        "meta_mean_motion_ddot": 0,
        "tle_line1": "1 35287U 93036AJR 25351.54974610  .00000318  00000+0  11734-3 0  9998",
        "tle_line2": "2 35287  74.0304 267.2972 0017790   2.8844 174.5253 14.36380646869618"
      },
      "geometry": {
        "type": "Point",
        "coordinates": [
          162.22477383241502,
          -73.53877289784403
        ]
      }
    },
    {
      "type": "Feature",
      "properties": {
        "norad_id": 35288,
        "name": "COSMOS 2251 DEB",
        "group": "cosmos-2251-debris",
        "lat": -61.314774661025496,
        "lon": -143.23117570906282,
        "alt_km": 654.8072327399041,
        "timestamp": "2025-12-17T23:38:07.249435+00:00",
        "meta_object_name": "COSMOS 2251 DEB",
        "meta_object_id": "1993-036AJS",
        "meta_epoch": "2025-12-15T08:15:30.303072",
        "meta_mean_motion": 14.65486547,
        "meta_eccentricity": 0.00393272,
        "meta_inclination": 73.9514,
        "meta_ra_of_asc_node": 10.134,
        "meta_arg_of_pericenter": 243.2869,
        "meta_mean_anomaly": 116.4271,
        "meta_ephemeris_type": 0,
        "meta_classification_type": "U",
        "meta_norad_cat_id": 35288,
        "meta_element_set_no": 999,
        "meta_rev_at_epoch": 87916,
        "meta_bstar": 0.00067125427,
        "meta_mean_motion_dot": 3.647e-05,
        "meta_mean_motion_ddot": 0,
        "tle_line1": "1 35288U 93036AJS 25349.34410073  .00003647  00000+0  67125-3 0  9995",
        "tle_line2": "2 35288  73.9514  10.1340 0039327 243.2869 116.4271 14.65486547879167"
      },
      "geometry": {
        "type": "Point",
        "coordinates": [
          -143.23117570906282,
          -61.314774661025496
        ]
      }
    },
    {
      "type": "Feature",
      "properties": {
        "norad_id": 35290,
        "name": "COSMOS 2251 DEB",
        "group": "cosmos-2251-debris",
        "lat": 73.79093605785805,
        "lon": 129.71825382806728,
        "alt_km": 620.5786463720297,
        "timestamp": "2025-12-17T23:38:07.249445+00:00",
        "meta_object_name": "COSMOS 2251 DEB",
        "meta_object_id": "1993-036AJU",
        "meta_epoch": "2025-12-15T14:28:49.986048",
        "meta_mean_motion": 14.80473727,
        "meta_eccentricity": 0.00019506,
        "meta_inclination": 74.0058,
        "meta_ra_of_asc_node": 53.7782,
        "meta_arg_of_pericenter": 195.4132,
        "meta_mean_anomaly": 164.6986,
        "meta_ephemeris_type": 0,
        "meta_classification_type": "U",
        "meta_norad_cat_id": 35290,
        "meta_element_set_no": 999,
        "meta_rev_at_epoch": 88000,
        "meta_bstar": 0.0012248752,
        "meta_mean_motion_dot": 9.351e-05,
        "meta_mean_motion_ddot": 0,
        "tle_line1": "1 35290U 93036AJU 25349.60335632  .00009351  00000+0  12249-2 0  9998",
        "tle_line2": "2 35290  74.0058  53.7782 0001950 195.4132 164.6986 14.80473727880006"
      },
      "geometry": {
        "type": "Point",
        "coordinates": [
          129.71825382806728,
          73.79093605785805
        ]
      }
    },
    {
      "type": "Feature",
      "properties": {
        "norad_id": 35432,
        "name": "COSMOS 2251 DEB",
        "group": "cosmos-2251-debris",
        "lat": 46.58617768161283,
        "lon": 22.118403724746393,
        "alt_km": 487.9124896310723,
        "timestamp": "2025-12-17T23:38:07.249455+00:00",
        "meta_object_name": "COSMOS 2251 DEB",
        "meta_object_id": "1993-036AKA",
        "meta_epoch": "2025-12-17T10:48:56.006208",
        "meta_mean_motion": 15.23770731,
        "meta_eccentricity": 0.00123581,
        "meta_inclination": 74.0195,
        "meta_ra_of_asc_node": 5.6133,
        "meta_arg_of_pericenter": 333.6233,
        "meta_mean_anomaly": 26.4335,
        "meta_ephemeris_type": 0,
        "meta_classification_type": "U",
        "meta_norad_cat_id": 35432,
        "meta_element_set_no": 999,
        "meta_rev_at_epoch": 87575,
        "meta_bstar": 0.0028503415,
        "meta_mean_motion_dot": 0.00069351,
        "meta_mean_motion_ddot": 0,
        "tle_line1": "1 35432U 93036AKA 25351.45064822  .00069351  00000+0  28503-2 0  9998",
        "tle_line2": "2 35432  74.0195   5.6133 0012358 333.6233  26.4335 15.23770731875756"
      },
      "geometry": {
        "type": "Point",
        "coordinates": [
          22.118403724746393,
          46.58617768161283
        ]
      }
    },
    {
      "type": "Feature",
      "properties": {
        "norad_id": 35433,
        "name": "COSMOS 2251 DEB",
        "group": "cosmos-2251-debris",
        "lat": -6.526824874187806,
        "lon": -33.03680291042356,
        "alt_km": 763.4058550540212,
        "timestamp": "2025-12-17T23:38:07.249465+00:00",
        "meta_object_name": "COSMOS 2251 DEB",
        "meta_object_id": "1993-036AKB",
        "meta_epoch": "2025-12-10T18:27:52.031808",
        "meta_mean_motion": 14.34742553,
        "meta_eccentricity": 0.00254013,
        "meta_inclination": 74.0339,
        "meta_ra_of_asc_node": 342.0559,
        "meta_arg_of_pericenter": 37.4572,
        "meta_mean_anomaly": 142.4072,
        "meta_ephemeris_type": 0,
        "meta_classification_type": "U",
        "meta_norad_cat_id": 35433,
        "meta_element_set_no": 999,
        "meta_rev_at_epoch": 86552,
        "meta_bstar": 0.00041847558,
        "meta_mean_motion_dot": 1.164e-05,
        "meta_mean_motion_ddot": 0,
        "tle_line1": "1 35433U 93036AKB 25344.76935222  .00001164  00000+0  41848-3 0  9992",
        "tle_line2": "2 35433  74.0339 342.0559 0025401  37.4572 142.4072 14.34742553865528"
      },
      "geometry": {
        "type": "Point",
        "coordinates": [
          -33.03680291042356,
          -6.526824874187806
        ]
      }
    }
  ]
}